0 COSMOS 943
1 10289U 77079E   13282.14158361  .00000016  00000-0  20774-3 0  6532
2 10289 074.0230 294.1127 0007905 349.4281 122.6179 12.52029571651279
0 COSMOS 943
1 10289U 77079E   13284.47131206  .00000007  00000-0  14884-3 0  6545
2 10289 074.0227 291.0035 0007947 346.0474 183.2857 12.52029749651567
0 COSMOS 943
1 10289U 77079E   13286.76260385 -.00000016  00000-0 -92234-6 0  6551
2 10289 074.0227 287.9454 0007961 342.6789 070.7548 12.52030165651856
0 COSMOS 943
1 10289U 77079E   13289.09259391 -.00000037  00000-0 -13586-3 0  6569
2 10289 074.0230 284.8355 0008012 339.3720 132.5314 12.52030273652143
0 COSMOS 943
1 10289U 77079E   13291.17279891 -.00000026  00000-0 -64526-4 0  6578
2 10289 074.0233 282.0591 0008047 336.4508 148.4426 12.52030024652401
0 COSMOS 943
1 10289U 77079E   13293.41644375  .00000008  00000-0  15207-3 0  6580
2 10289 074.0236 279.0649 0008074 333.1703 181.1394 12.52029858652686
0 COSMOS 943
1 10289U 77079E   13295.79420186  .00000018  00000-0  21575-3 0  6592
2 10289 074.0237 275.8917 0008115 329.8606 098.1512 12.52029843652985
